start=new Date('2023-01-12T00:00:00.000Z').valueOf();
sats=[{"FILE":"3740419","MEAN_ELEMENT_THEORY":"SGP4","PERIOD":"95.437","EPOCH":"2023-01-11T19:24:13.795200","DECAY_DATE":null,"RA_OF_ASC_NODE":"49.3576","ECCENTRICITY":"0.00028060","OBJECT_ID":"2022-111X","TLE_LINE1":"1 53794U 22111X   23011.80849300  .00003898  00000-0  26284-3 0  9997","OBJECT_TYPE":"PAYLOAD","LAUNCH_DATE":"2022-09-11","PERIAPSIS":"537.775","MEAN_MOTION":"15.08849512","REF_FRAME":"TEME","MEAN_ANOMALY":"332.3073","BSTAR":"0.00026284000000","TIME_SYSTEM":"UTC","CLASSIFICATION_TYPE":"U","RCS_SIZE":"LARGE","EPHEMERIS_TYPE":"0","NORAD_CAT_ID":"53794","MEAN_MOTION_DOT":"0.00003898","REV_AT_EPOCH":"1964","TLE_LINE2":"2 53794  53.2166  49.3576 0002806  27.8068 332.3073 15.08849512 19648","MEAN_MOTION_DDOT":"0.0000000000000","INCLINATION":"53.2166","SITE":"AFETR","APOAPSIS":"541.657","ARG_OF_PERICENTER":"27.8068","CENTER_NAME":"EARTH","COUNTRY_CODE":"US","OBJECT_NAME":"STARLINK-4730","SEMIMAJOR_AXIS":"6917.851","GP_ID":"222827185","ELEMENT_SET_NO":"999"},{"COUNTRY_CODE":"US","APOAPSIS":"541.486","CENTER_NAME":"EARTH","ARG_OF_PERICENTER":"30.7958","OBJECT_NAME":"STARLINK-4742","ELEMENT_SET_NO":"999","GP_ID":"222827874","SEMIMAJOR_AXIS":"6917.911","NORAD_CAT_ID":"53795","REV_AT_EPOCH":"1964","MEAN_MOTION_DOT":"-0.00001692","EPHEMERIS_TYPE":"0","TLE_LINE2":"2 53795  53.2183  49.3146 0002472  30.7958 329.3179 15.08829901 19644","MEAN_MOTION_DDOT":"0.0000000000000","INCLINATION":"53.2183","SITE":"AFETR","OBJECT_TYPE":"PAYLOAD","PERIAPSIS":"538.066","LAUNCH_DATE":"2022-09-11","MEAN_MOTION":"15.08829901","REF_FRAME":"TEME","BSTAR":"-0.00008822100000","TIME_SYSTEM":"UTC","MEAN_ANOMALY":"329.3179","CLASSIFICATION_TYPE":"U","RCS_SIZE":"LARGE","MEAN_ELEMENT_THEORY":"SGP4","FILE":"3740419","PERIOD":"95.438","EPOCH":"2023-01-11T19:13:38.331840","RA_OF_ASC_NODE":"49.3146","DECAY_DATE":null,"TLE_LINE1":"1 53795U 22111Y   23011.80113810 -.00001692  00000-0 -88221-4 0  9990","OBJECT_ID":"2022-111Y","ECCENTRICITY":"0.00024720"},{"GP_ID":"222827643","ELEMENT_SET_NO":"999","SEMIMAJOR_AXIS":"6917.885","OBJECT_NAME":"STARLINK-4721","COUNTRY_CODE":"US","ARG_OF_PERICENTER":"85.7706","CENTER_NAME":"EARTH","APOAPSIS":"540.607","SITE":"AFETR","INCLINATION":"53.2191","MEAN_MOTION_DDOT":"0.0000000000000","TLE_LINE2":"2 53796  53.2191  29.5677 0001240  85.7706 274.3428 15.08838645 19940","MEAN_MOTION_DOT":"0.00000419","REV_AT_EPOCH":"1994","NORAD_CAT_ID":"53796","EPHEMERIS_TYPE":"0","RCS_SIZE":"LARGE","CLASSIFICATION_TYPE":"U","BSTAR":"0.00004439500000","MEAN_ANOMALY":"274.3428","TIME_SYSTEM":"UTC","PERIAPSIS":"538.892","LAUNCH_DATE":"2022-09-11","REF_FRAME":"TEME","MEAN_MOTION":"15.08838645","OBJECT_TYPE":"PAYLOAD","OBJECT_ID":"2022-111Z","TLE_LINE1":"1 53796U 22111Z   23011.74041685  .00000419  00000-0  44395-4 0  9992","ECCENTRICITY":"0.00012400","RA_OF_ASC_NODE":"29.5677","DECAY_DATE":null,"EPOCH":"2023-01-11T17:46:12.015840","PERIOD":"95.438","MEAN_ELEMENT_THEORY":"SGP4","FILE":"3740419"},{"PERIOD":"95.438","EPOCH":"2023-01-11T18:57:43.477920","FILE":"3740419","MEAN_ELEMENT_THEORY":"SGP4","ECCENTRICITY":"0.00013060","OBJECT_ID":"2022-111AA","TLE_LINE1":"1 53797U 22111AA  23011.79008655  .00001217  00000-0  94541-4 0  9993","DECAY_DATE":null,"RA_OF_ASC_NODE":"49.2400","LAUNCH_DATE":"2022-09-11","MEAN_MOTION":"15.08840023","PERIAPSIS":"538.842","REF_FRAME":"TEME","OBJECT_TYPE":"PAYLOAD","RCS_SIZE":"LARGE","TIME_SYSTEM":"UTC","BSTAR":"0.00009454100000","MEAN_ANOMALY":"312.1273","CLASSIFICATION_TYPE":"U","EPHEMERIS_TYPE":"0","NORAD_CAT_ID":"53797","MEAN_MOTION_DOT":"0.00001217","REV_AT_EPOCH":"1963","INCLINATION":"53.2168","MEAN_MOTION_DDOT":"0.0000000000000","SITE":"AFETR","TLE_LINE2":"2 53797  53.2168  49.2400 0001306  47.9831 312.1273 15.08840023 19638","APOAPSIS":"540.649","ARG_OF_PERICENTER":"47.9831","CENTER_NAME":"EARTH","COUNTRY_CODE":"US","SEMIMAJOR_AXIS":"6917.880","GP_ID":"222826955","ELEMENT_SET_NO":"999","OBJECT_NAME":"STARLINK-4723"},{"RCS_SIZE":"LARGE","CLASSIFICATION_TYPE":"U","MEAN_ANOMALY":"264.8285","BSTAR":"0.00005316400000","TIME_SYSTEM":"UTC","LAUNCH_DATE":"2022-09-11","REF_FRAME":"TEME","PERIAPSIS":"538.718","MEAN_MOTION":"15.08837890","OBJECT_TYPE":"PAYLOAD","ECCENTRICITY":"0.00014950","TLE_LINE1":"1 53798U 22111AB  23011.79376711  .00000558  00000-0  53164-4 0  9998","OBJECT_ID":"2022-111AB","DECAY_DATE":null,"RA_OF_ASC_NODE":"49.2663","EPOCH":"2023-01-11T19:03:01.478304","PERIOD":"95.438","FILE":"3740419","MEAN_ELEMENT_THEORY":"SGP4","SEMIMAJOR_AXIS":"6917.887","ELEMENT_SET_NO":"999","GP_ID":"222826718","OBJECT_NAME":"STARLINK-4712","CENTER_NAME":"EARTH","ARG_OF_PERICENTER":"95.2877","APOAPSIS":"540.786","COUNTRY_CODE":"US","SITE":"AFETR","MEAN_MOTION_DDOT":"0.0000000000000","INCLINATION":"53.2173","TLE_LINE2":"2 53798  53.2173  49.2663 0001495  95.2877 264.8285 15.08837890 19635","EPHEMERIS_TYPE":"0","MEAN_MOTION_DOT":"0.00000558","REV_AT_EPOCH":"1963","NORAD_CAT_ID":"53798"},{"CENTER_NAME":"EARTH","ARG_OF_PERICENTER":"38.9877","APOAPSIS":"541.057","COUNTRY_CODE":"US","SEMIMAJOR_AXIS":"6917.882","ELEMENT_SET_NO":"999","GP_ID":"222768209","OBJECT_NAME":"STARLINK-4710","EPHEMERIS_TYPE":"0","MEAN_MOTION_DOT":"-0.00000969","REV_AT_EPOCH":"1970","NORAD_CAT_ID":"53799","SITE":"AFETR","INCLINATION":"53.2185","MEAN_MOTION_DDOT":"0.0000000000000","TLE_LINE2":"2 53799  53.2185  41.5377 0001893  38.9877 321.1252 15.08839310 19700","LAUNCH_DATE":"2022-09-11","MEAN_MOTION":"15.08839310","PERIAPSIS":"538.438","REF_FRAME":"TEME","OBJECT_TYPE":"PAYLOAD","RCS_SIZE":"LARGE","CLASSIFICATION_TYPE":"U","TIME_SYSTEM":"UTC","BSTAR":"-0.00004280800000","MEAN_ANOMALY":"321.1252","EPOCH":"2023-01-11T08:33:47.870784","PERIOD":"95.438","FILE":"3740054","MEAN_ELEMENT_THEORY":"SGP4","ECCENTRICITY":"0.00018930","OBJECT_ID":"2022-111AC","TLE_LINE1":"1 53799U 22111AC  23011.35680406 -.00000969  00000-0 -42808-4 0  9991","DECAY_DATE":null,"RA_OF_ASC_NODE":"41.5377"},{"CLASSIFICATION_TYPE":"U","MEAN_ANOMALY":"294.7668","BSTAR":"-0.00004786700000","TIME_SYSTEM":"UTC","RCS_SIZE":"LARGE","OBJECT_TYPE":"PAYLOAD","LAUNCH_DATE":"2022-09-11","PERIAPSIS":"538.581","REF_FRAME":"TEME","MEAN_MOTION":"15.08848299","DECAY_DATE":null,"RA_OF_ASC_NODE":"40.9643","ECCENTRICITY":"0.00016470","OBJECT_ID":"2022-111AD","TLE_LINE1":"1 53800U 22111AD  23011.49296484 -.00001050  00000-0 -47867-4 0  9990","FILE":"3740054","MEAN_ELEMENT_THEORY":"SGP4","EPOCH":"2023-01-11T11:49:52.162176","PERIOD":"95.437","OBJECT_NAME":"STARLINK-4720","SEMIMAJOR_AXIS":"6917.855","ELEMENT_SET_NO":"999","GP_ID":"222768437","CENTER_NAME":"EARTH","ARG_OF_PERICENTER":"65.3496","APOAPSIS":"540.859","COUNTRY_CODE":"US","TLE_LINE2":"2 53800  53.2189  40.9643 0001647  65.3496 294.7668 15.08848299 19728","SITE":"AFETR","MEAN_MOTION_DDOT":"0.0000000000000","INCLINATION":"53.2189","EPHEMERIS_TYPE":"0","MEAN_MOTION_DOT":"-0.00001050","REV_AT_EPOCH":"1972","NORAD_CAT_ID":"53800"},{"REV_AT_EPOCH":"1973","MEAN_MOTION_DOT":"0.00001078","NORAD_CAT_ID":"53801","EPHEMERIS_TYPE":"0","TLE_LINE2":"2 53801  53.2187  40.5984 0001807  39.7532 320.3593 15.08858735 19735","SITE":"AFETR","MEAN_MOTION_DDOT":"0.0000000000000","INCLINATION":"53.2187","COUNTRY_CODE":"US","CENTER_NAME":"EARTH","ARG_OF_PERICENTER":"39.7532","APOAPSIS":"540.938","OBJECT_NAME":"STARLINK-4715","ELEMENT_SET_NO":"999","GP_ID":"222769115","SEMIMAJOR_AXIS":"6917.823","MEAN_ELEMENT_THEORY":"SGP4","FILE":"3740054","EPOCH":"2023-01-11T13:09:18.264384","PERIOD":"95.436","RA_OF_ASC_NODE":"40.5984","DECAY_DATE":null,"TLE_LINE1":"1 53801U 22111AE  23011.54812806  .00001078  00000-0  85794-4 0  9998","OBJECT_ID":"2022-111AE","ECCENTRICITY":"0.00018070","OBJECT_TYPE":"PAYLOAD","REF_FRAME":"TEME","LAUNCH_DATE":"2022-09-11","PERIAPSIS":"538.438","MEAN_MOTION":"15.08858735","CLASSIFICATION_TYPE":"U","BSTAR":"0.00008579400000","TIME_SYSTEM":"UTC","MEAN_ANOMALY":"320.3593","RCS_SIZE":"LARGE"},{"TLE_LINE2":"2 53802  53.2186  40.9168 0002227  32.9368 327.1763 15.08851564 19728","MEAN_MOTION_DDOT":"0.0000000000000","INCLINATION":"53.2186","SITE":"AFETR","EPHEMERIS_TYPE":"0","NORAD_CAT_ID":"53802","REV_AT_EPOCH":"1972","MEAN_MOTION_DOT":"0.00003643","OBJECT_NAME":"STARLINK-4726","SEMIMAJOR_AXIS":"6917.845","GP_ID":"222767983","ELEMENT_SET_NO":"999","APOAPSIS":"541.251","ARG_OF_PERICENTER":"32.9368","CENTER_NAME":"EARTH","COUNTRY_CODE":"US","DECAY_DATE":null,"RA_OF_ASC_NODE":"40.9168","ECCENTRICITY":"0.00022270","TLE_LINE1":"1 53802U 22111AF  23011.48558551  .00003643  00000-0  24681-3 0  9993","OBJECT_ID":"2022-111AF","FILE":"3740054","MEAN_ELEMENT_THEORY":"SGP4","PERIOD":"95.437","EPOCH":"2023-01-11T11:39:14.588064","BSTAR":"0.00024681000000","TIME_SYSTEM":"UTC","MEAN_ANOMALY":"327.1763","CLASSIFICATION_TYPE":"U","RCS_SIZE":"LARGE","OBJECT_TYPE":"PAYLOAD","LAUNCH_DATE":"2022-09-11","PERIAPSIS":"538.169","REF_FRAME":"TEME","MEAN_MOTION":"15.08851564"},{"OBJECT_ID":"2022-111AG","TLE_LINE1":"1 53803U 22111AG  23011.91667824 -.01143501  00000-0 -68324-1 0  9997","ECCENTRICITY":"0.00014410","RA_OF_ASC_NODE":"24.3930","DECAY_DATE":null,"EPOCH":"2023-01-11T22:00:00.999936","PERIOD":"95.137","MEAN_ELEMENT_THEORY":"SGP4","FILE":"3740419","RCS_SIZE":"LARGE","CLASSIFICATION_TYPE":"U","TIME_SYSTEM":"UTC","BSTAR":"-0.06832400000000","MEAN_ANOMALY":"295.0135","REF_FRAME":"TEME","LAUNCH_DATE":"2022-09-11","PERIAPSIS":"524.223","MEAN_MOTION":"15.13605242","OBJECT_TYPE":"PAYLOAD","SITE":"AFETR","MEAN_MOTION_DDOT":"0.0000000000000","INCLINATION":"53.2173","TLE_LINE2":"2 53803  53.2173  24.3930 0001441  48.1623 295.0135 15.13605242  1305","MEAN_MOTION_DOT":"-0.01143501","REV_AT_EPOCH":"130","NORAD_CAT_ID":"53803","EPHEMERIS_TYPE":"0","GP_ID":"222827875","ELEMENT_SET_NO":"999","SEMIMAJOR_AXIS":"6903.353","OBJECT_NAME":"STARLINK-4727","COUNTRY_CODE":"US","CENTER_NAME":"EARTH","ARG_OF_PERICENTER":"48.1623","APOAPSIS":"526.213"}];
